GONETS-M 19             
1 46488U 20068C   26155.83250399 -.00000002  00000+0 -89953-4 0  9995
2 46488  82.4966 354.7609 0014485  74.3721 285.8956 12.42891724257712
DEKART                  
1 46493U 20068H   26155.83882896  .00014316  00000+0  39666-3 0  9990
2 46493  97.8742 164.2275 0007883 340.0800  20.0134 15.37054744313875
NORBI                   
1 46494U 20068J   26155.81209756  .00026619  00000+0  51166-3 0  9995
2 46494  97.8632 170.6914 0004742 310.2318  49.8515 15.47909517314296
SALSAT                  
1 46495U 20068K   26154.99736177  .00008555  00000+0  30076-3 0  9992
2 46495  97.8850 157.2614 0009364 359.9507   0.1729 15.29597840313346
ICEYE-X6                
1 46497U 20068M   26155.82065822  .00002873  00000+0  21016-3 0  9990
2 46497  98.0968 148.9029 0008608 124.0662 236.1381 15.04451273311379
NETSAT-4                
1 46504U 20068U   26154.57661827  .00018989  00000+0  42675-3 0  9996
2 46504  97.8606 161.7287 0005699  30.7472 329.4107 15.43386179313674
NETSAT-3                
1 46505U 20068V   26154.57235990  .00019667  00000+0  45992-3 0  9994
2 46505  97.8653 159.9578 0006067  46.7511 313.4240 15.42183437313582
NETSAT-1                
1 46506U 20068W   26155.22385502  .00015061  00000+0  45524-3 0  9998
2 46506  97.8744 155.1432 0006370  67.0325 293.1588 15.34317185313317
NETSAT-2                
1 46507U 20068X   26154.57013299  .00024586  00000+0  51556-3 0  9991
2 46507  97.8621 161.5679 0005193  62.6477 297.5299 15.45384645313636
TIANQI-6                
1 46810U 20076D   26155.28692547  .00004468  00000+0  29310-3 0  9995
2 46810  34.9979 127.6312 0009346  52.7586 307.3975 15.07092432306634
KSM1-C                  
1 46906U 20081B   26155.86414237  .00011180  00000+0  42106-3 0  9996
2 46906  36.8934 135.0080 0000889 168.5878 191.4891 15.26529208307288
KSM1-D                  
1 46907U 20081C   26155.32566492  .00007220  00000+0  29028-3 0  9997
2 46907  36.8945 147.0915 0003429 174.4571 185.6216 15.24529294307133
KSM1-A                  
1 46912U 20081H   26155.86107786  .00010554  00000+0  40699-3 0  9990
2 46912  36.8943 137.3283 0004324 229.5470 130.4902 15.25758656307296
R2                      
1 46913U 20081J   26152.08134849  .00008820  00000+0  34667-3 0  9993
2 46913  36.8961 160.5241 0006826 158.1099 201.9942 15.25182244309522
KSM1-B                  
1 46914U 20081K   26155.39285561  .00011435  00000+0  45980-3 0  9995
2 46914  36.9003 147.2541 0005563 187.6248 172.4417 15.24329743310231
GONETS-M 20             
1 47227U 20091A   26155.85102209  .00000035  00000+0  18181-3 0  9999
2 47227  82.5040 310.1056 0020610 204.9469 155.0617 12.42893210249543
GONETS-M 21             
1 47228U 20091B   26155.82482514  .00000122  00000+0  80627-3 0  9998
2 47228  82.4963 308.8362 0014212 218.4178 141.5890 12.42886121249534
GONETS-M 22             
1 47229U 20091C   26155.79797392  .00000002  00000+0 -54174-4 0  9995
2 47229  82.5021 309.7459 0021550 200.3812 159.6409 12.42891986249481
CUBEL                   
1 47448U 21006AM  26155.36964146  .00009912  00000+0  24380-3 0  9994
2 47448  97.2334 206.0780 0005889 204.0120 156.0853 15.40805222297789
ARKTIKA-M 1             
1 47719U 21016A   26153.03917935 -.00000200  00000+0  00000+0 0  9993
2 47719  63.2379  59.8266 7283239 269.8643  14.6915  2.00628509 38489
STARLINK-2342           
1 47883U 21021Z   26155.75003471  .01167600  00000+0  82236-2 0  9995
2 47883  53.1544 210.1624 0001534  74.6263 209.9030 15.71071771  5950
GRUS-1B                 
1 47934U 21022C   26155.82729669  .00002276  00000+0  19232-3 0  9998
2 47934  97.5400  39.4299 0016667  11.1247 349.0341 14.98961068284046
UNISAT-7                
1 47945U 21022P   26155.68622483  .00015697  00000+0  39289-3 0  9995
2 47945  97.3899  60.4828 0011165 115.2370 245.0035 15.40116887287936
GLOBAL-9                
1 47971U 21023G   26154.94594889  .00024185  00000+0  48948-3 0  9995
2 47971  44.9824 324.9238 0004941 252.5688 107.4661 15.46052590292898
AII-BRAVO               
1 48270U 21034C   26155.64184605  .00005721  00000+0  42527-3 0  9991
2 48270  97.5603 210.8376 0004985 313.4296  46.6514 15.03370497277735
TYVAK-182A              
1 48271U 21034D   26155.64063169  .00006547  00000+0  45249-3 0  9994
2 48271  97.5725 214.7764 0006255  27.1101 333.0451 15.06049516277945
CSS (TIANHE)            
1 48274U 21035A   26155.68961053  .00024475  00000+0  29392-3 0  9992
2 48274  41.4693  38.0294 0009579 342.1781  17.8720 15.60257338291216
TYVAK-0130              
1 48606U 21041BF  26155.02466516  .00009208  00000+0  35106-3 0  9997
2 48606  52.9942  87.2052 0011253 124.8097 235.3960 15.27369068278376
