OBJECT_NAME,OBJECT_ID,EPOCH,MEAN_MOTION,ECCENTRICITY,INCLINATION,RA_OF_ASC_NODE,ARG_OF_PERICENTER,MEAN_ANOMALY,EPHEMERIS_TYPE,CLASSIFICATION_TYPE,NORAD_CAT_ID,ELEMENT_SET_NO,REV_AT_EPOCH,BSTAR,MEAN_MOTION_DOT,MEAN_MOTION_DDOT
GONETS-M 19,2020-068C,2026-06-04T19:58:48.344736,12.42891724,.0014485,82.4966,354.7609,74.3721,285.8956,0,U,46488,999,25771,-.89953E-4,-.2E-7,0
DEKART,2020-068H,2026-06-04T20:07:54.822144,15.37054744,.0007883,97.8742,164.2275,340.0800,20.0134,0,U,46493,999,31387,.39666E-3,.14316E-3,0
NORBI,2020-068J,2026-06-04T19:29:25.229184,15.47909517,.0004742,97.8632,170.6914,310.2318,49.8515,0,U,46494,999,31429,.51166E-3,.26619E-3,0
SALSAT,2020-068K,2026-06-03T23:56:12.056928,15.29597840,.00093644,97.8850,157.2614,359.9507,0.1729,0,U,46495,999,31334,.30076162E-3,.8555E-4,0
ICEYE-X6,2020-068M,2026-06-04T19:41:44.870208,15.04451273,.0008608,98.0968,148.9029,124.0662,236.1381,0,U,46497,999,31137,.21016E-3,.2873E-4,0
NETSAT-4,2020-068U,2026-06-03T13:50:19.818528,15.43386179,.00056992,97.8606,161.7287,30.7472,329.4107,0,U,46504,999,31367,.42675312E-3,.18989E-3,0
NETSAT-3,2020-068V,2026-06-03T13:44:11.895360,15.42183437,.00060677,97.8653,159.9578,46.7511,313.4240,0,U,46505,999,31358,.45992462E-3,.19667E-3,0
NETSAT-1,2020-068W,2026-06-04T05:22:21.073728,15.34317185,.000637,97.8744,155.1432,67.0325,293.1588,0,U,46506,999,31331,.45524E-3,.15061E-3,0
NETSAT-2,2020-068X,2026-06-03T13:40:59.490336,15.45384645,.00051933,97.8621,161.5679,62.6477,297.5299,0,U,46507,999,31363,.51556175E-3,.24586E-3,0
TIANQI-6,2020-076D,2026-06-04T06:53:10.360608,15.07092432,.0009346,34.9979,127.6312,52.7586,307.3975,0,U,46810,999,30663,.2931E-3,.4468E-4,0
KSM1-C,2020-081B,2026-06-04T20:44:21.900768,15.26529208,.0000889,36.8934,135.0080,168.5878,191.4891,0,U,46906,999,30728,.42106E-3,.1118E-3,0
KSM1-D,2020-081C,2026-06-04T07:48:57.449088,15.24529294,.0003429,36.8945,147.0915,174.4571,185.6216,0,U,46907,999,30713,.29028E-3,.722E-4,0
KSM1-A,2020-081H,2026-06-04T20:39:57.127104,15.25758656,.0004324,36.8943,137.3283,229.5470,130.4902,0,U,46912,999,30729,.40699E-3,.10554E-3,0
R2,2020-081J,2026-06-01T01:57:08.509536,15.25182244,.00068263,36.8961,160.5241,158.1099,201.9942,0,U,46913,999,30952,.346666E-3,.882E-4,0
KSM1-B,2020-081K,2026-06-04T09:25:42.724704,15.24329743,.0005563,36.9003,147.2541,187.6248,172.4417,0,U,46914,999,31023,.4598E-3,.11435E-3,0
GONETS-M 20,2020-091A,2026-06-04T20:25:28.308576,12.42893210,.002061,82.5040,310.1056,204.9469,155.0617,0,U,47227,999,24954,.18181E-3,.35E-6,0
GONETS-M 21,2020-091B,2026-06-04T19:47:44.892096,12.42886121,.0014212,82.4963,308.8362,218.4178,141.5890,0,U,47228,999,24953,.80627E-3,.122E-5,0
GONETS-M 22,2020-091C,2026-06-04T19:09:04.946688,12.42891986,.002155,82.5021,309.7459,200.3812,159.6409,0,U,47229,999,24948,-.54174E-4,.2E-7,0
CUBEL,2021-006AM,2026-06-04T08:52:17.022144,15.40805222,.0005889,97.2334,206.0780,204.0120,156.0853,0,U,47448,999,29778,.2438E-3,.9912E-4,0
ARKTIKA-M 1,2021-016A,2026-06-02T00:56:25.095840,2.00628509,.72832396,63.2379,59.8266,269.8643,14.6915,0,U,47719,999,3848,0,-.2E-5,0
STARLINK-2342,2021-021Z,2026-06-04T18:00:02.998944,15.71071771,.0001534,53.1544,210.1624,74.6263,209.9030,0,U,47883,999,595,.82236E-2,.11676E-1,0
GRUS-1B,2021-022C,2026-06-04T19:51:18.434016,14.98961068,.0016667,97.5400,39.4299,11.1247,349.0341,0,U,47934,999,28404,.19232E-3,.2276E-4,0
UNISAT-7,2021-022P,2026-06-04T16:28:09.825312,15.40116887,.0011165,97.3899,60.4828,115.2370,245.0035,0,U,47945,999,28793,.39289E-3,.15697E-3,0
GLOBAL-9,2021-023G,2026-06-03T22:42:09.984096,15.46052590,.0004941,44.9824,324.9238,252.5688,107.4661,0,U,47971,999,29289,.48948485E-3,.24185E-3,0
AII-BRAVO,2021-034C,2026-06-04T15:24:15.498720,15.03370497,.0004985,97.5603,210.8376,313.4296,46.6514,0,U,48270,999,27773,.42527E-3,.5721E-4,0
TYVAK-182A,2021-034D,2026-06-04T15:22:30.578016,15.06049516,.0006255,97.5725,214.7764,27.1101,333.0451,0,U,48271,999,27794,.45249E-3,.6547E-4,0
CSS (TIANHE),2021-035A,2026-06-04T16:33:02.349792,15.60257338,.0009579,41.4693,38.0294,342.1781,17.8720,0,U,48274,999,29121,.29392E-3,.24475E-3,0
TYVAK-0130,2021-041BF,2026-06-04T00:35:31.069824,15.27369068,.00112531,52.9942,87.2052,124.8097,235.3960,0,U,48606,999,27837,.3510603E-3,.9208E-4,0
